OBJECT_NAME,OBJECT_ID,EPOCH,MEAN_MOTION,ECCENTRICITY,INCLINATION,RA_OF_ASC_NODE,ARG_OF_PERICENTER,MEAN_ANOMALY,EPHEMERIS_TYPE,CLASSIFICATION_TYPE,NORAD_CAT_ID,ELEMENT_SET_NO,REV_AT_EPOCH,BSTAR,MEAN_MOTION_DOT,MEAN_MOTION_DDOT
ONEWEB-0336,2021-083S,2026-06-18T09:37:54.555168,13.13470697,.00022416,87.8952,319.9857,92.1960,267.9426,0,U,49202,999,23107,.80286332E-3,.306E-5,0
ONEWEB-0337,2021-083T,2026-06-17T22:54:10.247328,13.13469901,.00020401,87.8952,320.0807,98.5203,261.6158,0,U,49203,999,23101,.72298893E-3,.277E-5,0
ONEWEB-0338,2021-083U,2026-06-18T13:20:59.098848,13.20774179,.00016942,87.9186,274.1757,104.6685,255.4637,0,U,49204,999,23699,.108939E-3,.57E-6,0
ONEWEB-0339,2021-083V,2026-06-18T15:33:48.526848,13.13470214,.00016806,87.8953,319.9350,105.2099,254.9216,0,U,49205,999,23108,.66626351E-3,.256E-5,0
ONEWEB-0340,2021-083W,2026-06-18T10:09:44.254368,13.18685552,.00019829,87.9171,335.2092,91.2884,268.8475,0,U,49206,999,23013,.955025E-6,.13E-6,0
ONEWEB-0341,2021-083X,2026-06-18T10:19:27.033600,13.18685980,.00022751,87.9165,335.2110,101.4954,258.6434,0,U,49207,999,23015,.9440311E-4,.5E-6,0
ONEWEB-0342,2021-083Y,2026-06-18T13:30:41.694048,13.20771729,.00019927,87.9197,274.1624,103.6531,256.4825,0,U,49208,999,23696,.4663674E-3,.203E-5,0
ONEWEB-0343,2021-083Z,2026-06-18T10:31:35.673312,13.18685893,.00016532,87.9167,335.2081,105.4423,254.6892,0,U,49209,999,23020,-.77990554E-4,-.18E-6,0
ONEWEB-0344,2021-083AA,2026-06-18T15:26:28.712832,13.13472421,.00021857,87.8945,319.9502,102.5314,257.6060,0,U,49210,999,23108,.10381925E-2,.392E-5,0
ONEWEB-0345,2021-083AB,2026-06-17T22:47:02.297760,13.13470628,.00020483,87.8963,320.0696,102.2350,257.9008,0,U,49211,999,23100,.80547379E-3,.307E-5,0
ONEWEB-0346,2021-083AC,2026-06-18T10:26:44.165760,13.18685455,.00022945,87.9161,335.2089,79.4054,280.7337,0,U,49212,999,23014,-.30156741E-4,.1E-7,0
ONEWEB-0348,2021-083AD,2026-06-18T13:16:08.924448,13.20771674,.0002474,87.9197,274.1684,95.0945,265.0470,0,U,49213,999,23699,.17226899E-3,.83E-6,0
ONEWEB-0350,2021-083AE,2026-06-18T10:09:54.677664,13.12942791,.00021167,87.8958,319.9798,99.1190,261.0178,0,U,49214,999,23109,.27807545E-3,.114E-5,0
ONEWEB-0351,2021-083AF,2026-06-18T13:06:14.604768,13.20770698,.00021169,87.9198,274.1685,124.9676,235.1656,0,U,49215,999,23695,.32027034E-3,.143E-5,0
ONEWEB-0352,2021-083AG,2026-06-18T09:30:35.857440,13.13470965,.00016883,87.8954,319.9917,109.8141,250.3170,0,U,49216,999,23118,.60154201E-3,.232E-5,0
ONEWEB-0354,2021-083AH,2026-06-18T06:28:52.567968,13.20772899,.00024067,87.9197,274.2223,100.0977,260.0428,0,U,49217,999,23695,.11201476E-3,.59E-6,0
ONEWEB-0355,2021-083AJ,2026-06-17T23:14:03.878016,13.13469190,.00018953,87.8951,320.0780,103.4532,256.6808,0,U,49218,999,23100,-.20884286E-3,-.64E-6,0
ONEWEB-0357,2021-083AK,2026-06-18T13:40:23.184192,13.20772957,.00019743,87.9199,274.1569,106.4107,253.7244,0,U,49219,999,23699,.26585028E-3,.121E-5,0
ONEWEB-0332,2021-090A,2026-06-18T14:07:47.835840,13.14502113,.00017247,87.8966,289.4295,101.9719,258.1604,0,U,49279,999,22776,-.33469948E-3,-.111E-5,0
ONEWEB-0347,2021-090B,2026-06-18T13:25:50.907072,13.20771094,.0001769,87.9197,274.1670,100.7798,259.3535,0,U,49280,999,23122,.16252897E-3,.79E-6,0
ONEWEB-0349,2021-090C,2026-06-18T14:11:54.398976,13.20772768,.0002018,87.9196,274.1612,101.3320,258.8040,0,U,49281,999,23001,-.6900594E-5,.1E-6,0
ONEWEB-0353,2021-090D,2026-06-18T13:56:23.509824,13.14503663,.00016474,87.8968,289.4266,100.7547,259.3769,0,U,49282,999,22776,-.18105617E-3,-.54E-6,0
ONEWEB-0356,2021-090E,2026-06-18T14:09:28.097856,13.20773672,.00020088,87.9196,274.1547,77.0565,283.0793,0,U,49283,999,23001,-.55664295E-4,-.1E-6,0
ONEWEB-0358,2021-090F,2026-06-18T13:08:35.015136,13.20237634,.0002124,87.9199,274.1692,95.3843,264.7532,0,U,49284,999,23073,.32639354E-3,.145E-5,0
ONEWEB-0359,2021-090G,2026-06-18T12:59:10.103424,13.20773839,.00022857,87.9194,274.1645,98.6895,261.4497,0,U,49285,999,23071,.24387373E-3,.112E-5,0
ONEWEB-0360,2021-090H,2026-06-18T12:44:36.522528,13.20770396,.00020511,87.9195,274.1727,102.5817,257.5545,0,U,49286,999,23002,.24727219E-3,.114E-5,0
ONEWEB-0361,2021-090J,2026-06-18T14:07:03.050400,13.20771730,.00020933,87.9196,274.1596,97.8782,262.2589,0,U,49287,999,23048,.974311E-5,.17E-6,0
ONEWEB-0362,2021-090K,2026-06-18T14:49:33.257856,13.19725256,.00019553,87.9171,304.6927,107.0029,253.1318,0,U,49288,999,22710,.23199408E-3,.106E-5,0
ONEWEB-0363,2021-090L,2026-06-18T12:39:46.654848,13.20770636,.00020337,87.9195,274.1721,91.0345,269.1022,0,U,49289,999,23048,-.24487008E-4,.3E-7,0
ONEWEB-0364,2021-090M,2026-06-18T13:35:32.316864,13.20771474,.00020187,87.9195,274.1723,101.3641,258.7719,0,U,49290,999,23162,.68297593E-4,.41E-6,0
