[
  {
    "name": "ONEWEB-0336",
    "noradId": "49202",
    "line1": "1 49202U 21083S   26169.40132587  .00000306  00000+0  80286-3 0  9990",
    "line2": "2 49202  87.8952 319.9857 0002241  92.1960 267.9426 13.13470697231076"
  },
  {
    "name": "ONEWEB-0337",
    "noradId": "49203",
    "line1": "1 49203U 21083T   26168.95428527  .00000277  00000+0  72299-3 0  9994",
    "line2": "2 49203  87.8952 320.0807 0002040  98.5203 261.6158 13.13469901231015"
  },
  {
    "name": "ONEWEB-0338",
    "noradId": "49204",
    "line1": "1 49204U 21083U   26169.55623957  .00000057  00000+0  10894-3 0  9995",
    "line2": "2 49204  87.9186 274.1757 0001694 104.6685 255.4637 13.20774179236995"
  },
  {
    "name": "ONEWEB-0339",
    "noradId": "49205",
    "line1": "1 49205U 21083V   26169.64847832  .00000256  00000+0  66626-3 0  9991",
    "line2": "2 49205  87.8953 319.9350 0001680 105.2099 254.9216 13.13470214231082"
  },
  {
    "name": "ONEWEB-0340",
    "noradId": "49206",
    "line1": "1 49206U 21083W   26169.42342887  .00000013  00000+0  95503-6 0  9998",
    "line2": "2 49206  87.9171 335.2092 0001982  91.2884 268.8475 13.18685552230135"
  },
  {
    "name": "ONEWEB-0341",
    "noradId": "49207",
    "line1": "1 49207U 21083X   26169.43017400  .00000050  00000+0  94403-4 0  9997",
    "line2": "2 49207  87.9165 335.2110 0002275 101.4954 258.6434 13.18685980230157"
  },
  {
    "name": "ONEWEB-0342",
    "noradId": "49208",
    "line1": "1 49208U 21083Y   26169.56298257  .00000203  00000+0  46637-3 0  9998",
    "line2": "2 49208  87.9197 274.1624 0001992 103.6531 256.4825 13.20771729236969"
  },
  {
    "name": "ONEWEB-0343",
    "noradId": "49209",
    "line1": "1 49209U 21083Z   26169.43860733 -.00000018  00000+0 -77991-4 0  9993",
    "line2": "2 49209  87.9167 335.2081 0001653 105.4423 254.6892 13.18685893230205"
  },
  {
    "name": "ONEWEB-0344",
    "noradId": "49210",
    "line1": "1 49210U 21083AA  26169.64338788  .00000392  00000+0  10382-2 0  9990",
    "line2": "2 49210  87.8945 319.9502 0002185 102.5314 257.6060 13.13472421231088"
  },
  {
    "name": "ONEWEB-0345",
    "noradId": "49211",
    "line1": "1 49211U 21083AB  26168.94933215  .00000307  00000+0  80547-3 0  9996",
    "line2": "2 49211  87.8963 320.0696 0002048 102.2350 257.9008 13.13470628231005"
  },
  {
    "name": "ONEWEB-0346",
    "noradId": "49212",
    "line1": "1 49212U 21083AC  26169.43523340  .00000001  00000+0 -30157-4 0  9991",
    "line2": "2 49212  87.9161 335.2089 0002294  79.4054 280.7337 13.18685455230144"
  },
  {
    "name": "ONEWEB-0348",
    "noradId": "49213",
    "line1": "1 49213U 21083AD  26169.55288107  .00000083  00000+0  17227-3 0  9995",
    "line2": "2 49213  87.9197 274.1684 0002474  95.0945 265.0470 13.20771674236994"
  },
  {
    "name": "ONEWEB-0350",
    "noradId": "49214",
    "line1": "1 49214U 21083AE  26169.42354951  .00000114  00000+0  27808-3 0  9994",
    "line2": "2 49214  87.8958 319.9798 0002116  99.1190 261.0178 13.12942791231091"
  },
  {
    "name": "ONEWEB-0351",
    "noradId": "49215",
    "line1": "1 49215U 21083AF  26169.54600237  .00000143  00000+0  32027-3 0  9990",
    "line2": "2 49215  87.9198 274.1685 0002116 124.9676 235.1656 13.20770698236959"
  },
  {
    "name": "ONEWEB-0352",
    "noradId": "49216",
    "line1": "1 49216U 21083AG  26169.39624835  .00000232  00000+0  60154-3 0  9995",
    "line2": "2 49216  87.8954 319.9917 0001688 109.8141 250.3170 13.13470965231183"
  },
  {
    "name": "ONEWEB-0354",
    "noradId": "49217",
    "line1": "1 49217U 21083AH  26169.27005287  .00000059  00000+0  11201-3 0  9993",
    "line2": "2 49217  87.9197 274.2223 0002406 100.0977 260.0428 13.20772899236959"
  },
  {
    "name": "ONEWEB-0355",
    "noradId": "49218",
    "line1": "1 49218U 21083AJ  26168.96810044 -.00000064  00000+0 -20884-3 0  9999",
    "line2": "2 49218  87.8951 320.0780 0001895 103.4532 256.6808 13.13469190231003"
  },
  {
    "name": "ONEWEB-0357",
    "noradId": "49219",
    "line1": "1 49219U 21083AK  26169.56971278  .00000121  00000+0  26585-3 0  9990",
    "line2": "2 49219  87.9199 274.1569 0001974 106.4107 253.7244 13.20772957236993"
  },
  {
    "name": "ONEWEB-0332",
    "noradId": "49279",
    "line1": "1 49279U 21090A   26169.58874810 -.00000111  00000+0 -33470-3 0  9992",
    "line2": "2 49279  87.8966 289.4295 0001724 101.9719 258.1604 13.14502113227769"
  },
  {
    "name": "ONEWEB-0347",
    "noradId": "49280",
    "line1": "1 49280U 21090B   26169.55961698  .00000079  00000+0  16253-3 0  9993",
    "line2": "2 49280  87.9197 274.1670 0001769 100.7798 259.3535 13.20771094231224"
  },
  {
    "name": "ONEWEB-0349",
    "noradId": "49281",
    "line1": "1 49281U 21090C   26169.59160184  .00000010  00000+0 -69006-5 0  9991",
    "line2": "2 49281  87.9196 274.1612 0002018 101.3320 258.8040 13.20772768230016"
  },
  {
    "name": "ONEWEB-0353",
    "noradId": "49282",
    "line1": "1 49282U 21090D   26169.58082766 -.00000054  00000+0 -18106-3 0  9992",
    "line2": "2 49282  87.8968 289.4266 0001647 100.7547 259.3769 13.14503663227769"
  },
  {
    "name": "ONEWEB-0356",
    "noradId": "49283",
    "line1": "1 49283U 21090E   26169.58990854 -.00000010  00000+0 -55664-4 0  9992",
    "line2": "2 49283  87.9196 274.1547 0002008  77.0565 283.0793 13.20773672230014"
  },
  {
    "name": "ONEWEB-0358",
    "noradId": "49284",
    "line1": "1 49284U 21090F   26169.54762749  .00000145  00000+0  32639-3 0  9992",
    "line2": "2 49284  87.9199 274.1692 0002124  95.3843 264.7532 13.20237634230739"
  },
  {
    "name": "ONEWEB-0359",
    "noradId": "49285",
    "line1": "1 49285U 21090G   26169.54108916  .00000112  00000+0  24387-3 0  9998",
    "line2": "2 49285  87.9194 274.1645 0002285  98.6895 261.4497 13.20773839230718"
  },
  {
    "name": "ONEWEB-0360",
    "noradId": "49286",
    "line1": "1 49286U 21090H   26169.53097827  .00000114  00000+0  24727-3 0  9996",
    "line2": "2 49286  87.9195 274.1727 0002051 102.5817 257.5545 13.20770396230020"
  },
  {
    "name": "ONEWEB-0361",
    "noradId": "49287",
    "line1": "1 49287U 21090J   26169.58822975  .00000017  00000+0  97431-5 0  9998",
    "line2": "2 49287  87.9196 274.1596 0002093  97.8782 262.2589 13.20771730230483"
  },
  {
    "name": "ONEWEB-0362",
    "noradId": "49288",
    "line1": "1 49288U 21090K   26169.61774604  .00000106  00000+0  23199-3 0  9995",
    "line2": "2 49288  87.9171 304.6927 0001955 107.0029 253.1318 13.19725256227102"
  },
  {
    "name": "ONEWEB-0363",
    "noradId": "49289",
    "line1": "1 49289U 21090L   26169.52762332  .00000003  00000+0 -24487-4 0  9990",
    "line2": "2 49289  87.9195 274.1721 0002033  91.0345 269.1022 13.20770636230481"
  },
  {
    "name": "ONEWEB-0364",
    "noradId": "49290",
    "line1": "1 49290U 21090M   26169.56634626  .00000041  00000+0  68298-4 0  9999",
    "line2": "2 49290  87.9195 274.1723 0002018 101.3641 258.7719 13.20771474231627"
  }
]